LUR-1                   
1 60506U 24149AQ  26068.79566301  .00009121  00000+0  32985-3 0  9998
2 60506  97.3790 148.4255 0002777 309.1571  50.9421 15.28658648 86785
STARLINK-32926          
1 63025U 25032W   26068.82148411  .00039474  00000+0  14344-2 0  9993
2 63025  43.0004 335.0020 0001834 348.5664  11.5146 15.27624607 60648
